$$SOE
2460154.500000000, A.D. 2023-Jul-29 00:00:00.0000, -4.142518263950763E+08, 1.467498646664610E+08, -8.283489547126994E+06,
2460161.500000000, A.D. 2023-Aug-05 00:00:00.0000, -4.181606937540290E+08, 1.371017604394522E+08, -8.161172310215220E+06,
2460168.500000000, A.D. 2023-Aug-12 00:00:00.0000, -4.218315426166533E+08, 1.273755790648852E+08, -8.034206654410034E+06,
2460175.500000000, A.D. 2023-Aug-19 00:00:00.0000, -4.252632288672448E+08, 1.175771408241887E+08, -7.902682714515790E+06,
2460182.500000000, A.D. 2023-Aug-26 00:00:00.0000, -4.284547453130928E+08, 1.077122589524043E+08, -7.766692390582465E+06,
2460189.500000000, A.D. 2023-Sep-02 00:00:00.0000, -4.314052200392186E+08, 9.778673681796089E+07, -7.626329272353224E+06,
2460196.500000000, A.D. 2023-Sep-09 00:00:00.0000, -4.341139147196195E+08, 8.780636509175335E+07, -7.481688576479536E+06,
2460203.500000000, A.D. 2023-Sep-16 00:00:00.0000, -4.365802227209463E+08, 7.777691884551714E+07, -7.332867116648026E+06,
2460210.500000000, A.D. 2023-Sep-23 00:00:00.0000, -4.388036665861396E+08, 6.770415486416192E+07, -7.179963321293142E+06,
2460217.500000000, A.D. 2023-Sep-30 00:00:00.0000, -4.407838952411305E+08, 5.759381036024241E+07, -7.023077170324307E+06,
2460224.500000000, A.D. 2023-Oct-07 00:00:00.0000, -4.425206832826424E+08, 4.745160254470149E+07, -6.862309879317377E+06,
2460231.500000000, A.D. 2023-Oct-14 00:00:00.0000, -4.440139313128424E+08, 3.728322573860621E+07, -6.697763697366485E+06,
2460238.500000000, A.D. 2023-Oct-21 00:00:00.0000, -4.452636640955040E+08, 2.709434762772043E+07, -6.529541983456554E+06,
2460245.500000000, A.D. 2023-Oct-28 00:00:00.0000, -4.462700279586601E+08, 1.689060691739639E+07, -6.357749245471638E+06,
2460252.500000000, A.D. 2023-Nov-04 00:00:00.0000, -4.470332886963772E+08, 6.677611613233813E+06, -6.182491089930242E+06,
2460259.500000000, A.D. 2023-Nov-11 00:00:00.0000, -4.475538297964028E+08, -3.539062675518019E+06, -6.003874147694401E+06,
2460266.500000000, A.D. 2023-Nov-18 00:00:00.0000, -4.478321507777205E+08, -1.375387447643784E+07, -5.822006000845071E+06,
2460273.500000000, A.D. 2023-Nov-25 00:00:00.0000, -4.478688655678192E+08, -2.396131821823464E+07, -5.636995115301782E+06,
2460280.500000000, A.D. 2023-Dec-02 00:00:00.0000, -4.476647008939203E+08, -3.415592603288639E+07, -5.448950782485770E+06,
2460287.500000000, A.D. 2023-Dec-09 00:00:00.0000, -4.472204946128371E+08, -4.433226965734408E+07, -5.257983081868527E+06,
2460294.500000000, A.D. 2023-Dec-16 00:00:00.0000, -4.465371936943291E+08, -5.448496242475511E+07, -5.064202889708951E+06,
2460301.500000000, A.D. 2023-Dec-23 00:00:00.0000, -4.456158515112924E+08, -6.460866065980577E+07, -4.867721909742936E+06,
2460308.500000000, A.D. 2023-Dec-30 00:00:00.0000, -4.444576257776895E+08, -7.469806343084052E+07, -4.668652517147653E+06,
2460315.500000000, A.D. 2024-Jan-06 00:00:00.0000, -4.430637789071841E+08, -8.474791302197860E+07, -4.467107446237043E+06,
2460322.500000000, A.D. 2024-Jan-13 00:00:00.0000, -4.414356776207575E+08, -9.475299793462287E+07, -4.263199760697320E+06,
2460329.500000000, A.D. 2024-Jan-20 00:00:00.0000, -4.395747905790688E+08, -1.047081553359836E+08, -4.057042966466032E+06,
2460336.500000000, A.D. 2024-Jan-27 00:00:00.0000, -4.374826860667842E+08, -1.146082723063204E+08, -3.848751027954437E+06,
2460343.500000000, A.D. 2024-Feb-03 00:00:00.0000, -4.351610301585035E+08, -1.244482868388033E+08, -3.638438326300763E+06,
2460350.500000000, A.D. 2024-Feb-10 00:00:00.0000, -4.326115850926609E+08, -1.342231888872745E+08, -3.426219609421067E+06,
2460357.500000000, A.D. 2024-Feb-17 00:00:00.0000, -4.298362077181367E+08, -1.439280214562723E+08, -3.212209946231723E+06,
2460364.500000000, A.D. 2024-Feb-24 00:00:00.0000, -4.268368479794246E+08, -1.535578817200074E+08, -2.996524687210076E+06,
2460371.500000000, A.D. 2024-Mar-02 00:00:00.0000, -4.236155474115211E+08, -1.631079222044383E+08, -2.779279436613575E+06,
2460378.500000000, A.D. 2024-Mar-09 00:00:00.0000, -4.201744375057058E+08, -1.725733520972755E+08, -2.560590054172605E+06,
2460385.500000000, A.D. 2024-Mar-16 00:00:00.0000, -4.165157375507188E+08, -1.819494384907616E+08, -2.340572706326164E+06,
2460392.500000000, A.D. 2024-Mar-23 00:00:00.0000, -4.126417520524006E+08, -1.912315064501712E+08, -2.119343866793588E+06,
2460399.500000000, A.D. 2024-Mar-30 00:00:00.0000, -4.085548699720559E+08, -2.004149379370280E+08, -1.897020063086480E+06,
2460406.500000000, A.D. 2024-Apr-06 00:00:00.0000, -4.042575655275695E+08, -2.094951729575790E+08, -1.673717667740256E+06,
2460413.500000000, A.D. 2024-Apr-13 00:00:00.0000, -3.997523970072973E+08, -2.184677121023834E+08, -1.449552991622955E+06,
2460420.500000000, A.D. 2024-Apr-20 00:00:00.0000, -3.950420045484319E+08, -2.273281178010270E+08, -1.224642373025075E+06,
2460427.500000000, A.D. 2024-Apr-27 00:00:00.0000, -3.901291083944941E+08, -2.360720148542365E+08, -9.991021690668464E+05,
2460434.500000000, A.D. 2024-May-04 00:00:00.0000, -3.850165075418171E+08, -2.446950909491042E+08, -7.730487149265856E+05,
2460441.500000000, A.D. 2024-May-11 00:00:00.0000, -3.797070785357832E+08, -2.531930972623213E+08, -5.465982810538858E+05,
2460448.500000000, A.D. 2024-May-18 00:00:00.0000, -3.742037743348708E+08, -2.615618491326222E+08, -3.198670339956582E+05,
2460455.500000000, A.D. 2024-May-25 00:00:00.0000, -3.685096232180269E+08, -2.697972268118253E+08, -9.297100344921649E+04,
2460462.500000000, A.D. 2024-Jun-01 00:00:00.0000, -3.626277276756467E+08, -2.778951763537564E+08, 1.339739345627129E+05,
2460469.500000000, A.D. 2024-Jun-08 00:00:00.0000, -3.565612630377838E+08, -2.858517106655810E+08, 3.608520342354178E+05,
2460476.500000000, A.D. 2024-Jun-15 00:00:00.0000, -3.503134754397828E+08, -2.936629101776525E+08, 5.875476244832128E+05,
2460483.500000000, A.D. 2024-Jun-22 00:00:00.0000, -3.438876801295867E+08, -3.013249219575338E+08, 8.139452099680454E+05,
2460490.500000000, A.D. 2024-Jun-29 00:00:00.0000, -3.372872622367152E+08, -3.088339590901587E+08, 1.039929774689421E+06,
2460497.500000000, A.D. 2024-Jul-06 00:00:00.0000, -3.305156773571196E+08, -3.161863027976357E+08, 1.265386843728781E+06,
2460504.500000000, A.D. 2024-Jul-13 00:00:00.0000, -3.235764500048422E+08, -3.233783044767009E+08, 1.490202355375886E+06,
2460511.500000000, A.D. 2024-Jul-20 00:00:00.0000, -3.164731719154386E+08, -3.304063865058621E+08, 1.714262619904399E+06,
2460518.500000000, A.D. 2024-Jul-27 00:00:00.0000, -3.092095008553337E+08, -3.372670427821954E+08, 1.937454346856505E+06,
2460525.500000000, A.D. 2024-Aug-03 00:00:00.0000, -3.017891596621063E+08, -3.439568393639882E+08, 2.159664685066178E+06,
2460532.500000000, A.D. 2024-Aug-10 00:00:00.0000, -2.942159353484183E+08, -3.504724152256492E+08, 2.380781259643346E+06,
2460539.500000000, A.D. 2024-Aug-17 00:00:00.0000, -2.864936782215119E+08, -3.568104831051663E+08, 2.600692203159973E+06,
2460546.500000000, A.D. 2024-Aug-24 00:00:00.0000, -2.786263009900573E+08, -3.629678304678322E+08, 2.819286176515490E+06,
2460553.500000000, A.D. 2024-Aug-31 00:00:00.0000, -2.706177777423210E+08, -3.689413206484692E+08, 3.036452363731310E+06,
2460560.500000000, A.D. 2024-Sep-07 00:00:00.0000, -2.624721424294802E+08, -3.747278940457280E+08, 3.252080417380825E+06,
2460567.500000000, A.D. 2024-Sep-14 00:00:00.0000, -2.541934867674483E+08, -3.803245683715417E+08, 3.466060428139985E+06,
2460574.500000000, A.D. 2024-Sep-21 00:00:00.0000, -2.457859595831607E+08, -3.857284375414152E+08, 3.678283138111651E+06,
2460581.500000000, A.D. 2024-Sep-28 00:00:00.0000, -2.372537680886194E+08, -3.909366724327429E+08, 3.888640178552181E+06,
2460588.500000000, A.D. 2024-Oct-05 00:00:00.0000, -2.286011774097412E+08, -3.959465235118861E+08, 4.097023995217234E+06,
2460595.500000000, A.D. 2024-Oct-12 00:00:00.0000, -2.198325087293161E+08, -4.007553223532287E+08, 4.303327737814128E+06,
2460602.500000000, A.D. 2024-Oct-19 00:00:00.0000, -2.109521377945780E+08, -4.053604823232597E+08, 4.507445252052844E+06,
2460609.500000000, A.D. 2024-Oct-26 00:00:00.0000, -2.019644938213353E+08, -4.097594992320198E+08, 4.709271111851007E+06,
2460616.500000000, A.D. 2024-Nov-02 00:00:00.0000, -1.928740585362509E+08, -4.139499521003680E+08, 4.908700656033069E+06,
2460623.500000000, A.D. 2024-Nov-09 00:00:00.0000, -1.836853652589069E+08, -4.179295040223140E+08, 5.105630022405714E+06,
2460630.500000000, A.D. 2024-Nov-16 00:00:00.0000, -1.744029979957782E+08, -4.216959031223490E+08, 5.299956176945686E+06,
2460637.500000000, A.D. 2024-Nov-23 00:00:00.0000, -1.650315904972955E+08, -4.252469836578923E+08, 5.491576929867834E+06,
2460644.500000000, A.D. 2024-Nov-30 00:00:00.0000, -1.555758250677944E+08, -4.285806673095627E+08, 5.680390916159242E+06,
2460651.500000000, A.D. 2024-Dec-07 00:00:00.0000, -1.460404307069583E+08, -4.316949642385811E+08, 5.866297536667615E+06,
2460658.500000000, A.D. 2024-Dec-14 00:00:00.0000, -1.364301812693518E+08, -4.345879726868875E+08, 6.049197023110986E+06,
2460665.500000000, A.D. 2024-Dec-21 00:00:00.0000, -1.267498959580703E+08, -4.372578783597045E+08, 6.228990738390177E+06,
2460672.500000000, A.D. 2024-Dec-28 00:00:00.0000, -1.170044401769924E+08, -4.397029565575926E+08, 6.405581288854033E+06,
2460679.500000000, A.D. 2025-Jan-04 00:00:00.0000, -1.071987241420578E+08, -4.419215746829425E+08, 6.578872404696792E+06,
2460686.500000000, A.D. 2025-Jan-11 00:00:00.0000, -9.733770107115823E+07, -4.439121934617628E+08, 6.748768891536653E+06,
2460693.500000000, A.D. 2025-Jan-18 00:00:00.0000, -8.742636586773083E+07, -4.456733677992527E+08, 6.915176662543803E+06,
2460700.500000000, A.D. 2025-Jan-25 00:00:00.0000, -7.746975405243361E+07, -4.472037477429193E+08, 7.078002790306121E+06,
2460707.500000000, A.D. 2025-Feb-01 00:00:00.0000, -6.747294075095904E+07, -4.485020795823803E+08, 7.237155558822185E+06,
2460714.500000000, A.D. 2025-Feb-08 00:00:00.0000, -5.744103967678911E+07, -4.495672070653630E+08, 7.392544512038231E+06,
$$EOE